[Satellite]
VERSION=1.1
NAME=TEVEL2-2
NICKNAME=TEVEL2-2
TLE1=1 63218U 25052J   25178.18958078  .00008985  00000-0  41252-3 0  9990
TLE2=2 63218  97.4286  71.8768 0002139 326.7180  33.3920 15.20628798 15922
STATUS=0
